IRIDIUM 57 [-]          
1 25273U 98019B   23332.22278216  .00000745  00000+0  25510-3 0  9990
2 25273  86.3987  22.6843 0002171  93.6700 266.4744 14.34997963343663
IRIDIUM 63 [-]          
1 25286U 98021B   23332.45999884  .00000858  00000+0  29159-3 0  9991
2 25286  86.3957 319.5285 0002080  86.4721 273.6713 14.35504281342780
IRIDIUM 69 [-]          
1 25319U 98026A   23332.49105251  .00000907  00000+0  28357-3 0  9998
2 25319  86.3972 334.4914 0004486  91.3615 268.8097 14.39685747341734
IRIDIUM 71 [-]          
1 25320U 98026B   23332.04977856  .00000857  00000+0  26606-3 0  9998
2 25320  86.3961 329.4933 0003654 123.0483 237.1067 14.40008576342199
IRIDIUM 73 [-]          
1 25344U 98032C   23331.94470294  .00001321  00000+0  33511-3 0  9993
2 25344  86.4392 287.2704 0003023  91.4317 268.7234 14.50155024348616
IRIDIUM 82 [-]          
1 25467U 98051A   23331.63165473  .00015697  00000+0  90379-3 0  9992
2 25467  86.3976  21.1555 0141472 240.6622 118.0419 15.04125059337981
IRIDIUM 2 [-]           
1 25527U 98066A   23332.32555769  .00056557  00000+0  11362-2 0  9997
2 25527  85.5190  71.2114 0004507  33.8242 326.3301 15.46423768375936
